SENTINEL-2B             
1 42063U 17013A   20176.15159618 -.00000014  00000-0  11203-4 0  9996
2 42063  98.5701 250.2893 0001142 101.3555 258.7760 14.30817658172338
